CCSDS_OEM_VERS = 1.0
CREATION_DATE  = 2017-05-11T11:13:31
ORIGINATOR     = GMAT USER

META_START
OBJECT_NAME          = MOPSSat_alt_35785_km_RAAN_90_043
OBJECT_ID            = SatId
CENTER_NAME          = Earth
REF_FRAME            = EME2000
TIME_SYSTEM          = UTC
START_TIME           = 2017-01-01T00:00:00.000
USEABLE_START_TIME   = 2017-01-01T00:00:00.000
USEABLE_STOP_TIME    = 2017-01-02T00:00:00.000
STOP_TIME            = 2017-01-02T00:00:00.000
INTERPOLATION        = Lagrange
INTERPOLATION_DEGREE = 7 
META_STOP


                                                                                   

2017-01-01T05:57:30.000  -4.216300110924382e+04   2.792695938175427e+02   6.974131775432099e-01  -2.032206397275035e-02  -3.074575711808818e+00   4.542239999258498e-05
2017-01-01T05:57:40.000  -4.216319311919188e+04   2.485237648367107e+02   6.978673232359602e-01  -1.807992330349027e-02  -3.074589691851681e+00   4.540672906671141e-05
2017-01-01T05:57:50.000  -4.216336270768374e+04   2.177778042609573e+02   6.983213119874275e-01  -1.583777292171915e-02  -3.074602036914666e+00   4.539101182579873e-05
2017-01-01T05:58:00.000  -4.216350987462723e+04   1.870317286823409e+02   6.987751433308782e-01  -1.359561403723451e-02  -3.074612746991058e+00   4.537524826819977e-05
2017-01-01T05:58:10.000  -4.216363461994183e+04   1.562855547681390e+02   6.992288167984523e-01  -1.135344786531908e-02  -3.074621822074985e+00   4.535943839233664e-05
2017-01-01T05:58:20.000  -4.216373694356174e+04   1.255392985535993e+02   6.996823319316018e-01  -9.111275575164777e-03  -3.074629262161663e+00   4.534358219634398e-05
2017-01-01T05:58:30.000  -4.216381684543272e+04   9.479297614738319e+01   7.001356882706771e-01  -6.869098341317072e-03  -3.074635067247137e+00   4.532767967842436e-05
2017-01-01T05:58:40.000  -4.216387432551315e+04   6.404660357171065e+01   7.005888853572916e-01  -4.626917332017638e-03  -3.074639237328375e+00   4.531173083676947e-05
2017-01-01T05:58:50.000  -4.216390938377012e+04   3.330019716054759e+01   7.010419227284291e-01  -2.384733738242134e-03  -3.074641772402984e+00   4.529573566975391e-05
2017-01-01T05:59:00.000  -4.216392202018336e+04   2.553773263967810e+00   7.014947999208250e-01  -1.425487521408207e-04  -3.074642672469488e+00   4.527969417579476e-05
2017-01-01T05:59:10.000  -4.216391223474379e+04  -2.819265175185678e+01   7.019475164709573e-01   2.099636432962183e-03  -3.074641937527227e+00   4.526360635334688e-05
2017-01-01T05:59:20.000  -4.216388002745667e+04  -5.893906120902842e+01   7.024000719107153e-01   4.341820601010189e-03  -3.074639567576596e+00   4.524747220106929e-05
2017-01-01T05:59:30.000  -4.216382539833874e+04  -8.968543851613514e+01   7.028524657732441e-01   6.584002542253576e-03  -3.074635562618811e+00   4.523129171760558e-05
2017-01-01T05:59:40.000  -4.216374834741887e+04  -1.204317670113911e+02   7.033046975906373e-01   8.826181041810793e-03  -3.074629922655983e+00   4.521506490166937e-05
2017-01-01T05:59:50.000  -4.216364887473654e+04  -1.511780306564832e+02   7.037567669041482e-01   1.106835493026715e-02  -3.074622647690993e+00   4.519879175167396e-05
2017-01-01T06:00:00.000  -4.216352698034315e+04  -1.819242133427411e+02   7.042086732539783e-01   1.331052303307723e-02  -3.074613737727593e+00   4.518247226610198e-05
2017-01-01T06:00:10.000  -4.216338266430223e+04  -2.126702990480169e+02   7.046604161815900e-01   1.555268418200536e-02  -3.074603192770415e+00   4.516610644342221e-05
2017-01-01T06:00:20.000  -4.216321592668808e+04  -2.434162714384811e+02   7.051119952238346e-01   1.779483718608652e-02  -3.074591012824880e+00   4.514969428229782e-05
2017-01-01T06:00:30.000  -4.216302676758768e+04  -2.741621141642785e+02   7.055634099173171e-01   2.003698085318714e-02  -3.074577197897333e+00   4.513323578143314e-05
2017-01-01T06:00:40.000  -4.216281518709938e+04  -3.049078108595307e+02   7.060146597983902e-01   2.227911399000519e-02  -3.074561747994946e+00   4.511673093957173e-05
2017-01-01T06:00:50.000  -4.216258118533789e+04  -3.356533448467340e+02   7.064657443988352e-01   2.452123538051340e-02  -3.074544663126086e+00   4.510017975566025e-05
2017-01-01T06:01:00.000  -4.216232476242885e+04  -3.663986995349435e+02   7.069166632516873e-01   2.676334381499691e-02  -3.074525943299912e+00   4.508358222862960e-05
2017-01-01T06:01:10.000  -4.216204591851047e+04  -3.971438582599429e+02   7.073674158888957e-01   2.900543807839757e-02  -3.074505588526506e+00   4.506693835748260e-05
2017-01-01T06:01:20.000  -4.216174465372739e+04  -4.278888049896833e+02   7.078180018516642e-01   3.124751700175826e-02  -3.074483598816415e+00   4.505024814091095e-05
2017-01-01T06:01:30.000  -4.216142096823672e+04  -4.586335236170731e+02   7.082684206800843e-01   3.348957941064933e-02  -3.074459974181091e+00   4.503351157767909e-05
2017-01-01T06:01:40.000  -4.216107486220672e+04  -4.893779981425469e+02   7.087186719158122e-01   3.573162413848262e-02  -3.074434714632810e+00   4.501672866652508e-05
2017-01-01T06:01:50.000  -4.216070633581978e+04  -5.201222121831419e+02   7.091687550948613e-01   3.797364999071080e-02  -3.074407820184865e+00   4.499989940642709e-05
2017-01-01T06:02:00.000  -4.216031538927036e+04  -5.508661493776384e+02   7.096186697535544e-01   4.021565577437212e-02  -3.074379290851438e+00   4.498302379638327e-05
2017-01-01T06:02:10.000  -4.215990202276533e+04  -5.816097932961388e+02   7.100684154271937e-01   4.245764029149662e-02  -3.074349126647613e+00   4.496610183546141e-05
2017-01-01T06:02:20.000  -4.215946623652535e+04  -6.123531274646735e+02   7.105179916504354e-01   4.469960234090045e-02  -3.074317327589478e+00   4.494913352278288e-05
2017-01-01T06:02:30.000  -4.215900803078311e+04  -6.430961353958072e+02   7.109673979577242e-01   4.694154072041778e-02  -3.074283893693996e+00   4.493211885750927e-05
2017-01-01T06:02:40.000  -4.215852740578328e+04  -6.738388005997446e+02   7.114166338834617e-01   4.918345422771084e-02  -3.074248824979013e+00   4.491505783883424e-05
2017-01-01T06:02:50.000  -4.215802436178158e+04  -7.045811066942817e+02   7.118656989636143e-01   5.142534166828801e-02  -3.074212121463169e+00   4.489795046593086e-05
2017-01-01T06:03:00.000  -4.215749889904506e+04  -7.353230373315130e+02   7.123145927346389e-01   5.366720185015885e-02  -3.074173783165933e+00   4.488079673798367e-05
2017-01-01T06:03:10.000  -4.215695101785210e+04  -7.660645761978418e+02   7.127633147334828e-01   5.590903358383513e-02  -3.074133810107605e+00   4.486359665419132e-05
2017-01-01T06:03:20.000  -4.215638071849049e+04  -7.968057070872605e+02   7.132118644986478e-01   5.815083568767454e-02  -3.074092202309167e+00   4.484635021371707e-05
2017-01-01T06:03:30.000  -4.215578800125983e+04  -8.275464137914440e+02   7.136602415685911e-01   6.039260697986584e-02  -3.074048959792461e+00   4.482905741575843e-05
2017-01-01T06:03:40.000  -4.215517286647209e+04  -8.582866800886658e+02   7.141084454815638e-01   6.263434627762059e-02  -3.074004082580231e+00   4.481171825955140e-05
2017-01-01T06:03:50.000  -4.215453531445064e+04  -8.890264897131675e+02   7.145564757751568e-01   6.487605239493933e-02  -3.073957570696054e+00   4.479433274439157e-05
2017-01-01T06:04:00.000  -4.215387534553262e+04  -9.197658263306306e+02   7.150043319859521e-01   6.711772414082304e-02  -3.073909424164507e+00   4.477690086964466e-05
2017-01-01T06:04:10.000  -4.215319296006614e+04  -9.505046736285757e+02   7.154520136508393e-01   6.935936032586516e-02  -3.073859643010977e+00   4.475942263469643e-05
2017-01-01T06:04:20.000  -4.215248815842165e+04  -9.812430149113885e+02   7.158995203011309e-01   7.160095973271921e-02  -3.073808227262465e+00   4.474189803918064e-05
2017-01-01T06:04:30.000  -4.215176094097875e+04  -1.011980833591098e+03   7.163468514696953e-01   7.384252115188858e-02  -3.073755176946648e+00   4.472432708270227e-05
2017-01-01T06:04:40.000  -4.215101130813084e+04  -1.042718113004876e+03   7.167940066883032e-01   7.608404336841776e-02  -3.073700492092208e+00   4.470670976494005e-05
2017-01-01T06:04:50.000  -4.215023926026808e+04  -1.073454837122089e+03   7.172409854979157e-01   7.832552521345409e-02  -3.073644172727592e+00   4.468904608524863e-05
2017-01-01T06:05:00.000  -4.214944479779428e+04  -1.104190989839043e+03   7.176877874384202e-01   8.056696551281749e-02  -3.073586218882235e+00   4.467133604305492e-05
2017-01-01T06:05:10.000  -4.214862792112336e+04  -1.134926555138814e+03   7.181344120509615e-01   8.280836309865496e-02  -3.073526630586315e+00   4.465357963777003e-05
2017-01-01T06:05:20.000  -4.214778863068684e+04  -1.165661516693104e+03   7.185808588721315e-01   8.504971678040719e-02  -3.073465407871292e+00   4.463577686900605e-05
2017-01-01T06:05:30.000  -4.214692692692934e+04  -1.196395858157872e+03   7.190271274382903e-01   8.729102536636640e-02  -3.073402550769580e+00   4.461792773641860e-05
2017-01-01T06:05:40.000  -4.214604281030710e+04  -1.227129563173304e+03   7.194732172855562e-01   8.953228766367496e-02  -3.073338059314441e+00   4.460003223970207e-05
2017-01-01T06:05:50.000  -4.214513628129963e+04  -1.257862615068397e+03   7.199191279455397e-01   9.177350245678151e-02  -3.073271933540833e+00   4.458209037877393e-05
2017-01-01T06:06:00.000  -4.214420734039535e+04  -1.288594997258920e+03   7.203648589511001e-01   9.401466853646280e-02  -3.073204173484365e+00   4.456410215353104e-05
2017-01-01T06:06:10.000  -4.214325598809691e+04  -1.319326693090645e+03   7.208104098340753e-01   9.625578468839091e-02  -3.073134779181680e+00   4.454606756394460e-05
2017-01-01T06:06:20.000  -4.214228222489971e+04  -1.350057686532864e+03   7.212557801353365e-01   9.849684974370849e-02  -3.073063750668895e+00   4.452798660964879e-05
2017-01-01T06:06:30.000  -4.214128605131320e+04  -1.380787961484881e+03   7.217009693947328e-01   1.007378625284543e-01  -3.072991087983149e+00   4.450985929035126e-05
